{
  "type": "FeatureCollection",
  "features": [
    {
      "type": "Feature",
      "properties": {
        "norad_id": 66827,
        "name": "STARLINK-35959",
        "group": "last-30-days",
        "lat": 38.273159036092416,
        "lon": -20.7690652587519,
        "alt_km": 407.2190685972437,
        "timestamp": "2025-12-20T22:39:09.407856+00:00",
        "meta_object_name": "STARLINK-35959",
        "meta_object_id": "2025-280G",
        "meta_epoch": "2025-12-20T14:00:03.000384",
        "meta_mean_motion": 15.52510285,
        "meta_eccentricity": 0.00031794,
        "meta_inclination": 69.9997,
        "meta_ra_of_asc_node": 176.9191,
        "meta_arg_of_pericenter": 265.1753,
        "meta_mean_anomaly": 19.324,
        "meta_ephemeris_type": 0,
        "meta_classification_type": "U",
        "meta_norad_cat_id": 66827,
        "meta_element_set_no": 999,
        "meta_rev_at_epoch": 415,
        "meta_bstar": 0.00039729384,
        "meta_mean_motion_dot": 0.00024341,
        "meta_mean_motion_ddot": 0,
        "tle_line1": "1 66827U 25280G   25354.58336806  .00024341  00000+0  39729-3 0  9990",
        "tle_line2": "2 66827  69.9997 176.9191 0003179 265.1753  19.3240 15.52510285  4156"
      },
      "geometry": {
        "type": "Point",
        "coordinates": [
          -20.7690652587519,
          38.273159036092416
        ]
      }
    },
    {
      "type": "Feature",
      "properties": {
        "norad_id": 66828,
        "name": "STARLINK-35982",
        "group": "last-30-days",
        "lat": 34.79824436331501,
        "lon": -18.734509904291595,
        "alt_km": 407.72371261795433,
        "timestamp": "2025-12-20T22:39:09.407867+00:00",
        "meta_object_name": "STARLINK-35982",
        "meta_object_id": "2025-280H",
        "meta_epoch": "2025-12-20T14:00:03.000384",
        "meta_mean_motion": 15.52513182,
        "meta_eccentricity": 0.00030956,
        "meta_inclination": 69.9999,
        "meta_ra_of_asc_node": 176.9154,
        "meta_arg_of_pericenter": 268.3679,
        "meta_mean_anomaly": 19.9661,
        "meta_ephemeris_type": 0,
        "meta_classification_type": "U",
        "meta_norad_cat_id": 66828,
        "meta_element_set_no": 999,
        "meta_rev_at_epoch": 415,
        "meta_bstar": 0.00029296611,
        "meta_mean_motion_dot": 0.00017892,
        "meta_mean_motion_ddot": 0,
        "tle_line1": "1 66828U 25280H   25354.58336806  .00017892  00000+0  29297-3 0  9993",
        "tle_line2": "2 66828  69.9999 176.9154 0003095 268.3679  19.9661 15.52513182  4159"
      },
      "geometry": {
        "type": "Point",
        "coordinates": [
          -18.734509904291595,
          34.79824436331501
        ]
      }
    },
    {
      "type": "Feature",
      "properties": {
        "norad_id": 66829,
        "name": "STARLINK-36084",
        "group": "last-30-days",
        "lat": 36.63226834781612,
        "lon": -19.782759749486953,
        "alt_km": 407.4054472449425,
        "timestamp": "2025-12-20T22:39:09.407877+00:00",
        "meta_object_name": "STARLINK-36084",
        "meta_object_id": "2025-280J",
        "meta_epoch": "2025-12-20T14:00:03.000384",
        "meta_mean_motion": 15.52516803,
        "meta_eccentricity": 0.00030124,
        "meta_inclination": 69.9999,
        "meta_ra_of_asc_node": 176.9174,
        "meta_arg_of_pericenter": 266.7843,
        "meta_mean_anomaly": 19.5253,
        "meta_ephemeris_type": 0,
        "meta_classification_type": "U",
        "meta_norad_cat_id": 66829,
        "meta_element_set_no": 999,
        "meta_rev_at_epoch": 399,
        "meta_bstar": 0.00025617975,
        "meta_mean_motion_dot": 0.00015622,
        "meta_mean_motion_ddot": 0,
        "tle_line1": "1 66829U 25280J   25354.58336806  .00015622  00000+0  25618-3 0  9996",
        "tle_line2": "2 66829  69.9999 176.9174 0003012 266.7843  19.5253 15.52516803  3993"
      },
      "geometry": {
        "type": "Point",
        "coordinates": [
          -19.782759749486953,
          36.63226834781612
        ]
      }
    },
    {
      "type": "Feature",
      "properties": {
        "norad_id": 66830,
        "name": "STARLINK-35881",
        "group": "last-30-days",
        "lat": 33.053101909589614,
        "lon": -17.785866140432606,
        "alt_km": 407.8932981570824,
        "timestamp": "2025-12-20T22:39:09.407886+00:00",
        "meta_object_name": "STARLINK-35881",
        "meta_object_id": "2025-280K",
        "meta_epoch": "2025-12-20T14:00:03.000384",
        "meta_mean_motion": 15.52509633,
        "meta_eccentricity": 0.00031681,
        "meta_inclination": 69.9999,
        "meta_ra_of_asc_node": 176.9116,
        "meta_arg_of_pericenter": 265.9531,
        "meta_mean_anomaly": 24.2979,
        "meta_ephemeris_type": 0,
        "meta_classification_type": "U",
        "meta_norad_cat_id": 66830,
        "meta_element_set_no": 999,
        "meta_rev_at_epoch": 415,
        "meta_bstar": 0.00039850594,
        "meta_mean_motion_dot": 0.00024416,
        "meta_mean_motion_ddot": 0,
        "tle_line1": "1 66830U 25280K   25354.58336806  .00024416  00000+0  39851-3 0  9993",
        "tle_line2": "2 66830  69.9999 176.9116 0003168 265.9531  24.2979 15.52509633  4158"
      },
      "geometry": {
        "type": "Point",
        "coordinates": [
          -17.785866140432606,
          33.053101909589614
        ]
      }
    },
    {
      "type": "Feature",
      "properties": {
        "norad_id": 66831,
        "name": "STARLINK-35788",
        "group": "last-30-days",
        "lat": 31.29767167866559,
        "lon": -16.869396171923853,
        "alt_km": 408.09236981492904,
        "timestamp": "2025-12-20T22:39:09.407895+00:00",
        "meta_object_name": "STARLINK-35788",
        "meta_object_id": "2025-280L",
        "meta_epoch": "2025-12-20T14:00:03.000384",
        "meta_mean_motion": 15.52509212,
        "meta_eccentricity": 0.00031656,
        "meta_inclination": 69.9998,
        "meta_ra_of_asc_node": 176.9111,
        "meta_arg_of_pericenter": 265.0881,
        "meta_mean_anomaly": 27.0826,
        "meta_ephemeris_type": 0,
        "meta_classification_type": "U",
        "meta_norad_cat_id": 66831,
        "meta_element_set_no": 999,
        "meta_rev_at_epoch": 415,
        "meta_bstar": 0.00034992595,
        "meta_mean_motion_dot": 0.0002141,
        "meta_mean_motion_ddot": 0,
        "tle_line1": "1 66831U 25280L   25354.58336806  .00021410  00000+0  34993-3 0  9997",
        "tle_line2": "2 66831  69.9998 176.9111 0003165 265.0881  27.0826 15.52509212  4154"
      },
      "geometry": {
        "type": "Point",
        "coordinates": [
          -16.869396171923853,
          31.29767167866559
        ]
      }
    },
    {
      "type": "Feature",
      "properties": {
        "norad_id": 66832,
        "name": "STARLINK-35768",
        "group": "last-30-days",
        "lat": 29.539342029095206,
        "lon": -15.990483200489445,
        "alt_km": 408.27120812629346,
        "timestamp": "2025-12-20T22:39:09.407904+00:00",
        "meta_object_name": "STARLINK-35768",
        "meta_object_id": "2025-280M",
        "meta_epoch": "2025-12-20T14:00:03.000384",
        "meta_mean_motion": 15.52517512,
        "meta_eccentricity": 0.00031896,
        "meta_inclination": 70,
        "meta_ra_of_asc_node": 176.9081,
        "meta_arg_of_pericenter": 264.0039,
        "meta_mean_anomaly": 30.0732,
        "meta_ephemeris_type": 0,
        "meta_classification_type": "U",
        "meta_norad_cat_id": 66832,
        "meta_element_set_no": 999,
        "meta_rev_at_epoch": 415,
        "meta_bstar": 0.00025806939,
        "meta_mean_motion_dot": 0.00015739,
        "meta_mean_motion_ddot": 0,
        "tle_line1": "1 66832U 25280M   25354.58336806  .00015739  00000+0  25807-3 0  9999",
        "tle_line2": "2 66832  70.0000 176.9081 0003189 264.0039  30.0732 15.52517512  4150"
      },
      "geometry": {
        "type": "Point",
        "coordinates": [
          -15.990483200489445,
          29.539342029095206
        ]
      }
    },
    {
      "type": "Feature",
      "properties": {
        "norad_id": 66833,
        "name": "STARLINK-35858",
        "group": "last-30-days",
        "lat": 27.776919890098373,
        "lon": -15.142430535052322,
        "alt_km": 408.42661548566684,
        "timestamp": "2025-12-20T22:39:09.407913+00:00",
        "meta_object_name": "STARLINK-35858",
        "meta_object_id": "2025-280N",
        "meta_epoch": "2025-12-20T14:00:03.000384",
        "meta_mean_motion": 15.52509735,
        "meta_eccentricity": 0.00032714,
        "meta_inclination": 70,
        "meta_ra_of_asc_node": 176.9053,
        "meta_arg_of_pericenter": 261.5183,
        "meta_mean_anomaly": 34.4783,
        "meta_ephemeris_type": 0,
        "meta_classification_type": "U",
        "meta_norad_cat_id": 66833,
        "meta_element_set_no": 999,
        "meta_rev_at_epoch": 415,
        "meta_bstar": 0.00041031523,
        "meta_mean_motion_dot": 0.00025147,
        "meta_mean_motion_ddot": 0,
        "tle_line1": "1 66833U 25280N   25354.58336806  .00025147  00000+0  41032-3 0  9992",
        "tle_line2": "2 66833  70.0000 176.9053 0003271 261.5183  34.4783 15.52509735  4156"
      },
      "geometry": {
        "type": "Point",
        "coordinates": [
          -15.142430535052322,
          27.776919890098373
        ]
      }
    }
  ]
}